ONEWEB-0607             
1 54671U 22166AF  24124.75136987  .00000013  00000+0 -44098-6 0  9994
2 54671  87.9320  38.1125 0001733  71.0735 289.0587 13.21824091 69231
ONEWEB-0608             
1 54672U 22166AG  24124.83337763 -.00000019  00000+0 -77059-4 0  9997
2 54672  87.9325  38.1151 0001886  59.0114 301.1205 13.21824032 69252
ONEWEB-0610             
1 54673U 22166AH  24124.81445181 -.00000079  00000+0 -22234-3 0  9990
2 54673  87.9321  38.1162 0001924  63.9363 296.1969 13.21823938 69157
ONEWEB-0611             
1 54674U 22166AJ  24124.80816249  .00000031  00000+0  44230-4 0  9994
2 54674  87.9320  38.1165 0002010  92.3222 267.8142 13.21824957 69146
ONEWEB-0612             
1 54675U 22166AK  24124.82077355 -.00000017  00000+0 -72323-4 0  9994
2 54675  87.9319  38.0974 0001936  69.7265 290.4077 13.21825315 69130
ONEWEB-0615             
1 54676U 22166AL  24124.80183479  .00000050  00000+0  90613-4 0  9995
2 54676  87.9317  38.1256 0001684  75.9078 284.2243 13.21824681 69146
ONEWEB-0655             
1 54677U 22166AM  24124.77503414 -.00000016  00000+0 -71332-4 0  9998
2 54677  87.9320  38.1324 0001369  75.7381 284.3905 13.21824603 69131
ONEWEB-0659             
1 54678U 22166AN  24124.79238368  .00000057  00000+0  10669-3 0  9992
2 54678  87.9318  38.1367 0002115  84.0660 276.0715 13.21824857 69227
